STARLINK-30227          
1 57505U 23113L   26068.22529593  .00032605  00000+0  15711-2 0  9993
2 57505  43.0053   4.8681 0002789 225.8359 134.2260 15.18160462143769
LEO EXPRESS 3           
1 66687U 25276X   26068.70934124  .00012924  00000+0  62124-3 0  9992
2 66687  97.4301 143.9034 0008989 143.3594 216.8257 15.18911167 15317
